NORAD_CAT_ID,OBJECT_NAME,OBJECT_TYPE,EPOCH,MEAN_MOTION,ECCENTRICITY,INCLINATION,RA_OF_ASC_NODE,ARG_OF_PERICENTER,MEAN_ANOMALY,BSTAR,MEAN_MOTION_DOT,MEAN_MOTION_DDOT,TLE_LINE0,TLE_LINE1,TLE_LINE2,SEMIMAJOR_AXIS,PERIOD,APOGEE,PERIGEE,DECAYED
51995.0,STARLINK-3636,PAYLOAD,2023-08-27 07:15:14,15.08801357,0.0001689,53.2176,213.3415,93.2472,266.8713,0.00051313,7.879e-05,0.0,0 STARLINK-3636,1 51995U 22025AR  23239.30225432  .00007879  00000-0  51313-3 0  9997,2 51995  53.2176 213.3415 0001689  93.2472 266.8713 15.08801357 82725,6917.999,95.44,541.032,538.695,0.0
51995.0,STARLINK-3636,PAYLOAD,2023-08-28 07:06:01,15.08839566,0.0001468,53.217,208.8809,85.7136,274.4024,6.3274e-05,7.19e-06,0.0,0 STARLINK-3636,1 51995U 22025AR  23240.29584588  .00000719  00000-0  63274-4 0  9993,2 51995  53.2170 208.8809 0001468  85.7136 274.4024 15.08839566 82872,6917.882,95.438,540.762,538.731,0.0
51995.0,STARLINK-3636,PAYLOAD,2023-08-28 15:02:56,15.08839606,0.0001474,53.2171,207.3941,85.6471,274.469,7.8874e-05,9.68e-06,0.0,0 STARLINK-3636,1 51995U 22025AR  23240.62704564  .00000968  00000-0  78874-4 0  9996,2 51995  53.2171 207.3941 0001474  85.6471 274.4690 15.08839606 81404,6917.882,95.438,540.766,538.727,0.0
51995.0,STARLINK-3636,PAYLOAD,2023-08-29 06:56:48,15.08840538,0.0001391,53.2163,204.4219,87.1132,273.0019,7.7301e-05,9.43e-06,0.0,0 STARLINK-3636,1 51995U 22025AR  23241.28944622  .00000943  00000-0  77301-4 0  9997,2 51995  53.2163 204.4219 0001391  87.1132 273.0019 15.08840538 81507,6917.879,95.438,540.706,538.781,0.0
51995.0,STARLINK-3636,PAYLOAD,2023-08-29 14:53:44,15.08834514,0.0001336,53.2163,202.9336,88.451,271.6635,3.2385e-05,2.27e-06,0.0,0 STARLINK-3636,1 51995U 22025AR  23241.62065180  .00000227  00000-0  32385-4 0  9996,2 51995  53.2163 202.9336 0001336  88.4510 271.6635 15.08834514 83072,6917.897,95.438,540.686,538.838,0.0
51995.0,STARLINK-3636,PAYLOAD,2023-08-30 14:44:31,15.08841552,0.0001452,53.2171,198.4734,87.0763,273.0395,3.748e-05,3.09e-06,0.0,0 STARLINK-3636,1 51995U 22025AR  23242.61424919  .00000309  00000-0  37480-4 0  9997,2 51995  53.2171 198.4734 0001452  87.0763 273.0395 15.08841552 81703,6917.876,95.437,540.745,538.736,0.0
51995.0,STARLINK-3636,PAYLOAD,2023-08-31 06:38:21,15.08852264,0.0001474,53.2179,195.499,90.1042,270.0119,-1.1098e-05,-4.65e-06,0.0,0 STARLINK-3636,1 51995U 22025AR  23243.27664340 -.00000465  00000-0 -11098-4 0  9996,2 51995  53.2179 195.4990 0001474  90.1042 270.0119 15.08852264 83324,6917.843,95.437,540.728,538.688,0.0
51995.0,STARLINK-3636,PAYLOAD,2023-08-31 20:56:51,15.08833581,0.00012,53.2188,192.824,90.7772,269.3358,3.2042e-05,2.22e-06,0.0,0 STARLINK-3636,1 51995U 22025AR  23243.87281428  .00000222  00000-0  32042-4 0  9995,2 51995  53.2188 192.8240 0001200  90.7772 269.3358 15.08833581 81893,6917.9,95.438,540.595,538.935,0.0
51995.0,STARLINK-3636,PAYLOAD,2023-09-01 03:18:23,15.08838308,0.0001396,53.2174,191.6347,92.4712,267.644,6.9526e-05,8.19e-06,0.0,0 STARLINK-3636,1 51995U 22025AR  23244.13777065  .00000819  00000-0  69526-4 0  9991,2 51995  53.2174 191.6347 0001396  92.4712 267.6440 15.08838308 83451,6917.886,95.438,540.716,538.785,0.0
51995.0,STARLINK-3636,PAYLOAD,2023-09-01 06:29:09,15.0884103,0.0001434,53.218,191.04,89.0411,271.0746,6.906e-05,8.11e-06,0.0,0 STARLINK-3636,1 51995U 22025AR  23244.27024950  .00000811  00000-0  69060-4 0  9999,2 51995  53.2180 191.0400 0001434  89.0411 271.0746 15.08841030 81950,6917.877,95.437,540.734,538.75,0.0
51995.0,STARLINK-3636,PAYLOAD,2023-09-02 03:09:11,15.08771194,0.0002266,53.2209,187.178,263.9712,96.1022,0.0010887,0.00017049,0.0,0 STARLINK-3636,1 51995U 22025AR  23245.13138594  .00017049  00000-0  10887-2 0  9997,2 51995  53.2209 187.1780 0002266 263.9712  96.1022 15.08771194 83600,6918.091,95.442,541.523,538.388,0.0
51995.0,STARLINK-3636,PAYLOAD,2023-09-02 04:44:32,15.08866647,0.0001528,53.2158,186.8783,98.0222,262.0944,-0.00026022,-4.43e-05,0.0,0 STARLINK-3636,1 51995U 22025AR  23245.19760353 -.00004430  00000-0 -26022-3 0  9998,2 51995  53.2158 186.8783 0001528  98.0222 262.0944 15.08866647 83611,6917.799,95.436,540.721,538.607,0.0
51995.0,STARLINK-3636,PAYLOAD,2023-09-02 20:38:25,15.08836014,0.0001653,53.218,183.9055,98.1189,261.999,1.4431e-05,-5.8e-07,0.0,0 STARLINK-3636,1 51995U 22025AR  23245.86001463 -.00000058  00000-0  14431-4 0  9995,2 51995  53.2180 183.9055 0001653  98.1189 261.9990 15.08836014 82194,6917.893,95.438,540.901,538.614,0.0
51995.0,STARLINK-3636,PAYLOAD,2023-09-03 02:59:57,15.08839441,0.000141,53.2177,182.7159,96.8876,263.2277,4.8473e-05,4.84e-06,0.0,0 STARLINK-3636,1 51995U 22025AR  23246.12497173  .00000484  00000-0  48473-4 0  9997,2 51995  53.2177 182.7159 0001410  96.8876 263.2277 15.08839441 83754,6917.882,95.438,540.723,538.772,0.0
51995.0,STARLINK-3636,PAYLOAD,2023-09-03 12:32:16,15.08837647,0.000113,53.2168,180.9312,94.3398,265.7723,-2.9848e-05,-7.63e-06,0.0,0 STARLINK-3636,1 51995U 22025AR  23246.52241571 -.00000763  00000-0 -29848-4 0  9997,2 51995  53.2168 180.9312 0001130  94.3398 265.7723 15.08837647 82293,6917.888,95.438,540.534,538.971,0.0
51995.0,STARLINK-3636,PAYLOAD,2023-09-03 23:39:59,15.08831141,0.0001326,53.2176,178.85,94.308,265.8064,-1.9502e-05,-5.98e-06,0.0,0 STARLINK-3636,1 51995U 22025AR  23246.98610250 -.00000598  00000-0 -19502-4 0  9993,2 51995  53.2176 178.8500 0001326  94.3080 265.8064 15.08831141 83880,6917.907,95.438,540.69,538.855,0.0
51995.0,STARLINK-3636,PAYLOAD,2023-09-04 12:23:04,15.08835108,0.000148,53.2189,176.472,96.5527,263.5634,6.9602e-05,8.2e-06,0.0,0 STARLINK-3636,1 51995U 22025AR  23247.51601937  .00000820  00000-0  69602-4 0  9997,2 51995  53.2189 176.4720 0001480  96.5527 263.5634 15.08835108 82449,6917.895,95.438,540.784,538.736,0.0
51995.0,STARLINK-3636,PAYLOAD,2023-09-05 04:16:54,15.08861054,0.000146,53.2184,173.498,93.0082,267.1077,-0.00020528,-3.555e-05,0.0,0 STARLINK-3636,1 51995U 22025AR  23248.17841070 -.00003555  00000-0 -20528-3 0  9997,2 51995  53.2184 173.4980 0001460  93.0082 267.1077 15.08861054 84065,6917.816,95.436,540.691,538.671,0.0
51995.0,STARLINK-3636,PAYLOAD,2023-09-06 00:56:55,15.08840539,0.0001336,53.2188,169.6307,91.2701,268.8445,0.00013596,1.877e-05,0.0,0 STARLINK-3636,1 51995U 22025AR  23249.03953609  .00001877  00000-0  13596-3 0  9995,2 51995  53.2188 169.6307 0001336  91.2701 268.8445 15.08840539 84195,6917.879,95.438,540.668,538.82,0.0
51995.0,STARLINK-3636,PAYLOAD,2023-09-06 18:26:10,15.08840561,0.0001169,53.2177,166.3604,93.1562,266.9564,5.9318e-05,6.56e-06,0.0,0 STARLINK-3636,1 51995U 22025AR  23249.76817809  .00000656  00000-0  59318-4 0  9993,2 51995  53.2177 166.3604 0001169  93.1562 266.9564 15.08840561 82786,6917.879,95.438,540.552,538.935,0.0
51995.0,STARLINK-3636,PAYLOAD,2023-09-07 00:47:43,15.08840857,0.0001133,53.2174,165.1706,93.2781,266.834,5.9955e-05,6.67e-06,0.0,0 STARLINK-3636,1 51995U 22025AR  23250.03313769  .00000667  00000-0  59955-4 0  9990,2 51995  53.2174 165.1706 0001133  93.2781 266.8340 15.08840857 84341,6917.878,95.438,540.527,538.959,0.0
51995.0,STARLINK-3636,PAYLOAD,2023-09-08 00:38:29,15.08842051,0.0001234,53.217,160.7098,97.9194,262.1939,5.7835e-05,6.33e-06,0.0,0 STARLINK-3636,1 51995U 22025AR  23251.02673563  .00000633  00000-0  57835-4 0  9999,2 51995  53.2170 160.7098 0001234  97.9194 262.1939 15.08842051 82971,6917.874,95.437,540.593,538.885,0.0
51995.0,STARLINK-3636,PAYLOAD,2023-09-08 18:07:44,15.0883711,0.0001208,53.2167,157.4395,96.2605,263.8525,4.4082e-05,4.14e-06,0.0,0 STARLINK-3636,1 51995U 22025AR  23251.75537915  .00000414  00000-0  44082-4 0  9996,2 51995  53.2167 157.4395 0001208  96.2605 263.8525 15.08837110 84601,6917.889,95.438,540.59,538.919,0.0
51995.0,STARLINK-3636,PAYLOAD,2023-09-09 03:40:03,15.08845258,0.0001146,53.2169,155.6556,91.4277,268.6846,7.2179e-05,8.61e-06,0.0,0 STARLINK-3636,1 51995U 22025AR  23252.15281287  .00000861  00000-0  72179-4 0  9993,2 51995  53.2169 155.6556 0001146  91.4277 268.6846 15.08845258 84662,6917.864,95.437,540.522,538.937,0.0
51995.0,STARLINK-3636,PAYLOAD,2023-09-09 17:58:31,15.08837201,0.0001264,53.2174,152.9775,95.283,264.8307,2.1298e-05,5.1e-07,0.0,0 STARLINK-3636,1 51995U 22025AR  23252.74898088  .00000051  00000-0  21298-4 0  9998,2 51995  53.2174 152.9775 0001264  95.2830 264.8307 15.08837201 84758,6917.889,95.438,540.628,538.88,0.0
51995.0,STARLINK-3636,PAYLOAD,2023-09-10 00:20:04,15.08843409,0.0001277,53.2167,151.7894,98.7524,261.3613,7.0853e-05,8.4e-06,0.0,0 STARLINK-3636,1 51995U 22025AR  23253.01393593  .00000840  00000-0  70853-4 0  9997,2 51995  53.2167 151.7894 0001277  98.7524 261.3613 15.08843409 84794,6917.87,95.437,540.618,538.852,0.0
51995.0,STARLINK-3636,PAYLOAD,2023-09-10 17:49:19,15.08831616,0.0001288,53.2167,148.5186,94.8735,265.2404,-4.0707e-05,-9.36e-06,0.0,0 STARLINK-3636,1 51995U 22025AR  23253.74258924 -.00000936  00000-0 -40707-4 0  9998,2 51995  53.2167 148.5186 0001288  94.8735 265.2404 15.08831616 84906,6917.906,95.438,540.662,538.88,0.0
51995.0,STARLINK-3636,PAYLOAD,2023-09-11 09:43:10,15.08837705,0.0001242,53.2175,145.5442,89.3901,270.7233,1.95e-05,2.2e-07,0.0,0 STARLINK-3636,1 51995U 22025AR  23254.40498571  .00000022  00000-0  19500-4 0  9997,2 51995  53.2175 145.5442 0001242  89.3901 270.7233 15.08837705 85009,6917.887,95.438,540.612,538.893,0.0
51995.0,STARLINK-3636,PAYLOAD,2023-09-12 01:37:01,15.08843781,0.0001196,53.217,142.5715,96.2809,263.8319,5.7577e-05,6.29e-06,0.0,0 STARLINK-3636,1 51995U 22025AR  23255.06738244  .00000629  00000-0  57577-4 0  9993,2 51995  53.2170 142.5715 0001196  96.2809 263.8319 15.08843781 83586,6917.869,95.437,540.561,538.906,0.0
51995.0,STARLINK-3636,PAYLOAD,2023-09-12 20:41:39,15.08838466,0.000105,53.2172,139.0039,97.9684,262.1428,0.000101,1.32e-05,0.0,0 STARLINK-3636,1 51995U 22025AR  23255.86226537  .00001320  00000-0  10100-3 0  9997,2 51995  53.2172 139.0039 0001050  97.9684 262.1428 15.08838466 83707,6917.885,95.438,540.476,539.024,0.0
